EUTELSAT QUANTUM        
1 49056U 21069B   25272.79589347  .00000129  00000+0  00000+0 0  9992
2 49056   0.0352 286.3831 0002411 282.4766 134.1906  1.00272409 15319
EUTELSAT KONNECT VHTS   
1 53765U 22110A   25272.78696677  .00000020  00000+0  00000+0 0  9996
2 53765   0.0534 102.5394 0002769  62.3209 129.9553  1.00269337  4212
EUTELSAT HOTBIRD 13F    
1 54048U 22134A   25272.71767874  .00000090  00000+0  00000+0 0  9995
2 54048   0.0591 285.6610 0001958  83.1479 271.3088  1.00272773 10763
EUTELSAT HOTBIRD 13G    
1 54225U 22146A   25272.28941196  .00000091  00000+0  00000+0 0  9999
2 54225   0.0507 235.9406 0002108 294.4662 315.1196  1.00272009  4859
EUTELSAT 10B            
1 54259U 22157A   25272.07479000  .00000073  00000+0  00000+0 0  9995
2 54259   0.0539 101.0220 0002007  14.6784 289.3510  1.00273654 10398
EUTELSAT 36D            
1 59346U 24059A   25272.81155803  .00000159  00000+0  00000+0 0  9999
2 59346   0.0018 169.6999 0000339 286.9162 240.2229  1.00270978  5534
